NORAD_CAT_ID,OBJECT_NAME,OBJECT_TYPE,EPOCH,MEAN_MOTION,ECCENTRICITY,INCLINATION,RA_OF_ASC_NODE,ARG_OF_PERICENTER,MEAN_ANOMALY,BSTAR,MEAN_MOTION_DOT,MEAN_MOTION_DDOT,TLE_LINE0,TLE_LINE1,TLE_LINE2,SEMIMAJOR_AXIS,PERIOD,APOGEE,PERIGEE,DECAYED
53786.0,STARLINK-4631,PAYLOAD,2024-04-07 11:40:52,15.08836297,0.0001167,53.2167,171.7059,86.9885,273.1241,-1.8632e-05,-5.84e-06,0.0,0 STARLINK-4631,1 53786U 22111P   24098.48671582 -.00000584  00000-0 -18632-4 0  9993,2 53786  53.2167 171.7059 0001167  86.9885 273.1241 15.08836297 87985,6917.892,95.438,540.564,538.949,0.0
53786.0,STARLINK-4631,PAYLOAD,2024-04-07 21:13:11,15.08836295,0.0001194,53.2162,169.9216,86.7494,273.3635,-1.7698e-05,-5.69e-06,0.0,0 STARLINK-4631,1 53786U 22111P   24098.88415634 -.00000569  00000-0 -17698-4 0  9995,2 53786  53.2162 169.9216 0001194  86.7494 273.3635 15.08836295 88043,6917.892,95.438,540.583,538.931,0.0
53786.0,STARLINK-4631,PAYLOAD,2024-04-08 11:31:39,15.08836241,0.0001211,53.2156,167.2457,87.0984,273.0147,1.3536e-05,-7.2e-07,0.0,0 STARLINK-4631,1 53786U 22111P   24099.48031677 -.00000072  00000-0  13536-4 0  9998,2 53786  53.2156 167.2457 0001211  87.0984 273.0147 15.08836241 87328,6917.892,95.438,540.595,538.919,0.0
53786.0,STARLINK-4631,PAYLOAD,2024-04-08 21:03:58,15.08834233,0.0001195,53.2154,165.4615,85.4881,274.6247,7.5711e-06,-1.67e-06,0.0,0 STARLINK-4631,1 53786U 22111P   24099.87775925 -.00000167  00000-0  75711-5 0  9991,2 53786  53.2154 165.4615 0001195  85.4881 274.6247 15.08834233 88194,6917.898,95.438,540.59,538.936,0.0
53786.0,STARLINK-4631,PAYLOAD,2024-04-09 11:22:26,15.08831516,0.000122,53.2152,162.7857,87.8951,272.2181,7.6171e-06,-1.67e-06,0.0,0 STARLINK-4631,1 53786U 22111P   24100.47392344 -.00000167  00000-0  76171-5 0  9991,2 53786  53.2152 162.7857 0001220  87.8951 272.2181 15.08831516 88285,6917.906,95.438,540.615,538.927,0.0
53786.0,STARLINK-4631,PAYLOAD,2024-04-09 20:54:45,15.08835542,0.0001242,53.2153,161.0013,87.2073,272.9061,2.96e-05,1.83e-06,0.0,0 STARLINK-4631,1 53786U 22111P   24100.87136151  .00000183  00000-0  29600-4 0  9998,2 53786  53.2153 161.0013 0001242  87.2073 272.9061 15.08835542 87539,6917.894,95.438,540.618,538.9,0.0
53786.0,STARLINK-4631,PAYLOAD,2024-04-10 12:48:36,15.08839043,0.0001281,53.2156,158.0279,87.1179,272.996,4.12e-05,3.68e-06,0.0,0 STARLINK-4631,1 53786U 22111P   24101.53376019  .00000368  00000-0  41200-4 0  9996,2 53786  53.2156 158.0279 0001281  87.1179 272.9960 15.08839043 88440,6917.883,95.438,540.634,538.862,0.0
53786.0,STARLINK-4631,PAYLOAD,2024-04-11 03:07:05,15.08837558,0.0001265,53.2155,155.351,90.5879,269.5258,5.3684e-05,5.67e-06,0.0,0 STARLINK-4631,1 53786U 22111P   24102.12992073  .00000567  00000-0  53684-4 0  9996,2 53786  53.2155 155.3510 0001265  90.5879 269.5258 15.08837558 87725,6917.888,95.438,540.628,538.878,0.0
53786.0,STARLINK-4631,PAYLOAD,2024-04-11 11:04:00,15.08838728,0.0001268,53.2156,153.8641,89.1875,270.9263,4.1731e-05,3.76e-06,0.0,0 STARLINK-4631,1 53786U 22111P   24102.46112098  .00000376  00000-0  41731-4 0  9992,2 53786  53.2156 153.8641 0001268  89.1875 270.9263 15.08838728 88584,6917.884,95.438,540.626,538.872,0.0
53786.0,STARLINK-4631,PAYLOAD,2024-04-11 20:36:19,15.08838897,0.0001266,53.2156,152.08,87.6377,272.476,2.3976e-05,9.4e-07,0.0,0 STARLINK-4631,1 53786U 22111P   24102.85856151  .00000094  00000-0  23976-4 0  9998,2 53786  53.2156 152.0800 0001266  87.6377 272.4760 15.08838897 88643,6917.884,95.438,540.625,538.873,0.0
53786.0,STARLINK-4631,PAYLOAD,2024-04-12 09:19:24,15.08839384,0.0001366,53.2166,149.7007,87.793,272.3218,-5.5498e-07,-2.97e-06,0.0,0 STARLINK-4631,1 53786U 22111P   24103.38848244 -.00000297  00000-0 -55498-6 0  9994,2 53786  53.2166 149.7007 0001366  87.7930 272.3218 15.08839384 87911,6917.882,95.438,540.692,538.802,0.0
53786.0,STARLINK-4631,PAYLOAD,2024-04-13 09:10:11,15.08841413,0.0001335,53.2168,145.2406,86.8627,273.2518,1.8587e-05,8e-08,0.0,0 STARLINK-4631,1 53786U 22111P   24104.38207966  .00000008  00000-0  18587-4 0  9999,2 53786  53.2168 145.2406 0001335  86.8627 273.2518 15.08841413 88871,6917.876,95.437,540.665,538.818,0.0
53786.0,STARLINK-4631,PAYLOAD,2024-04-14 02:39:26,15.08838057,0.0001327,53.2173,141.9702,84.8079,275.3065,1.9477e-05,2.2e-07,0.0,0 STARLINK-4631,1 53786U 22111P   24105.11072143  .00000022  00000-0  19477-4 0  9993,2 53786  53.2173 141.9702 0001327  84.8079 275.3065 15.08838057 88172,6917.886,95.438,540.669,538.833,0.0
53786.0,STARLINK-4631,PAYLOAD,2024-04-14 07:25:35,15.0883795,0.0001343,53.2171,141.0777,85.9191,274.1955,1.5855e-05,-3.6e-07,0.0,0 STARLINK-4631,1 53786U 22111P   24105.30944182 -.00000036  00000-0  15855-4 0  9997,2 53786  53.2171 141.0777 0001343  85.9191 274.1955 15.08837950 89018,6917.887,95.438,540.681,538.823,0.0
53786.0,STARLINK-4631,PAYLOAD,2024-04-15 08:51:46,15.08836423,0.000142,53.217,136.3192,97.0871,263.0283,-8.7592e-06,-4.27e-06,0.0,0 STARLINK-4631,1 53786U 22111P   24106.36928450 -.00000427  00000-0 -87592-5 0  9997,2 53786  53.2170 136.3192 0001420  97.0871 263.0283 15.08836423 88362,6917.891,95.438,540.739,538.774,0.0
53786.0,STARLINK-4631,PAYLOAD,2024-04-15 18:24:05,15.08836931,0.0001419,53.2171,134.5354,97.4723,262.6431,-7.8532e-07,-3e-06,0.0,0 STARLINK-4631,1 53786U 22111P   24106.76672469 -.00000300  00000-0 -78532-6 0  9992,2 53786  53.2171 134.5354 0001419  97.4723 262.6431 15.08836931 89232,6917.89,95.438,540.736,538.773,0.0
53786.0,STARLINK-4631,PAYLOAD,2024-04-16 08:42:32,15.08840203,0.0001358,53.2163,131.8591,89.5869,270.5279,5.6592e-05,6.13e-06,0.0,0 STARLINK-4631,1 53786U 22111P   24107.36288169  .00000613  00000-0  56592-4 0  9994,2 53786  53.2163 131.8591 0001358  89.5869 270.5279 15.08840203 89326,6917.88,95.438,540.684,538.805,0.0
53786.0,STARLINK-4631,PAYLOAD,2024-04-17 05:22:34,15.08837302,0.0001339,53.216,127.9942,91.7547,268.3598,4.0378e-05,3.55e-06,0.0,0 STARLINK-4631,1 53786U 22111P   24108.22400504  .00000355  00000-0  40378-4 0  9997,2 53786  53.2160 127.9942 0001339  91.7547 268.3598 15.08837302 88645,6917.889,95.438,540.68,538.827,0.0
53786.0,STARLINK-4631,PAYLOAD,2024-04-18 09:59:28,15.08867589,0.0001442,53.2164,122.6419,90.3476,269.7681,0.00023951,3.529e-05,0.0,0 STARLINK-4631,1 53786U 22111P   24109.41630218  .00003529  00000-0  23951-3 0  9999,2 53786  53.2164 122.6419 0001442  90.3476 269.7681 15.08867589 88829,6917.796,95.436,540.659,538.664,0.0
53786.0,STARLINK-4631,PAYLOAD,2024-04-19 05:04:08,15.0883203,0.0001055,53.2165,119.0702,69.4523,290.6582,-2.8384e-05,-7.39e-06,0.0,0 STARLINK-4631,1 53786U 22111P   24110.21120892 -.00000739  00000-0 -28384-4 0  9999,2 53786  53.2165 119.0702 0001055  69.4523 290.6582 15.08832030 88944,6917.905,95.438,540.5,539.04,0.0
53786.0,STARLINK-4631,PAYLOAD,2024-04-19 13:01:04,15.08832296,0.0001123,53.2172,117.5825,103.9724,256.1393,-2.7021e-05,-7.18e-06,0.0,0 STARLINK-4631,1 53786U 22111P   24110.54240889 -.00000718  00000-0 -27021-4 0  9998,2 53786  53.2172 117.5825 0001123 103.9724 256.1393 15.08832296 89801,6917.904,95.438,540.546,538.992,0.0
53786.0,STARLINK-4631,PAYLOAD,2024-04-20 04:54:54,15.08858788,0.0001098,53.2173,114.6106,91.9306,268.1812,-0.00017307,-3.043e-05,0.0,0 STARLINK-4631,1 53786U 22111P   24111.20480155 -.00003043  00000-0 -17307-3 0  9993,2 53786  53.2173 114.6106 0001098  91.9306 268.1812 15.08858788 89099,6917.823,95.436,540.448,538.928,0.0
53786.0,STARLINK-4631,PAYLOAD,2024-04-20 06:30:17,15.08860573,0.0001314,53.2167,114.3139,80.6015,279.5125,-0.00014822,-2.647e-05,0.0,0 STARLINK-4631,1 53786U 22111P   24111.27103954 -.00002647  00000-0 -14822-3 0  9997,2 53786  53.2167 114.3139 0001314  80.6015 279.5125 15.08860573 89917,6917.818,95.436,540.592,538.774,0.0
53786.0,STARLINK-4631,PAYLOAD,2024-04-21 04:45:43,15.08823976,0.0001501,53.216,110.1506,73.7036,286.4121,5.8285e-05,6.39e-06,0.0,0 STARLINK-4631,1 53786U 22111P   24112.19841505  .00000639  00000-0  58285-4 0  9999,2 53786  53.2160 110.1506 0001501  73.7036 286.4121 15.08823976 89241,6917.929,95.439,540.833,538.756,0.0
53786.0,STARLINK-4631,PAYLOAD,2024-04-21 06:21:06,15.0882478,0.0001445,53.216,109.8524,75.3332,284.782,4.1786e-05,3.77e-06,0.0,0 STARLINK-4631,1 53786U 22111P   24112.26465549  .00000377  00000-0  41786-4 0  9994,2 53786  53.2160 109.8524 0001445  75.3332 284.7820 15.08824780 90063,6917.927,95.439,540.792,538.792,0.0
53786.0,STARLINK-4631,PAYLOAD,2024-04-22 04:36:29,15.08838668,0.0001474,53.2165,105.6901,89.8967,270.2194,3.6729e-05,2.97e-06,0.0,0 STARLINK-4631,1 53786U 22111P   24113.19201061  .00000297  00000-0  36729-4 0  9996,2 53786  53.2165 105.6901 0001474  89.8967 270.2194 15.08838668 89395,6917.884,95.438,540.769,538.73,0.0
53786.0,STARLINK-4631,PAYLOAD,2024-04-22 09:22:38,15.08840724,0.0001483,53.2165,104.7973,91.3352,268.781,5.0678e-05,5.19e-06,0.0,0 STARLINK-4631,1 53786U 22111P   24113.39072884  .00000519  00000-0  50678-4 0  9993,2 53786  53.2165 104.7973 0001483  91.3352 268.7810 15.08840724 90238,6917.878,95.438,540.769,538.717,0.0
53786.0,STARLINK-4631,PAYLOAD,2024-04-23 04:27:19,15.08812571,0.0001545,53.2184,101.2286,93.4333,266.6836,-8.8685e-05,-1.698e-05,0.0,0 STARLINK-4631,1 53786U 22111P   24114.18564127 -.00001698  00000-0 -88685-4 0  9997,2 53786  53.2184 101.2286 0001545  93.4333 266.6836 15.08812571 89545,6917.964,95.439,540.898,538.76,0.0
53786.0,STARLINK-4631,PAYLOAD,2024-04-23 06:02:41,15.08825162,0.0001375,53.2167,100.9304,94.153,265.9619,2.0194e-05,3.3e-07,0.0,0 STARLINK-4631,1 53786U 22111P   24114.25187160  .00000033  00000-0  20194-4 0  9994,2 53786  53.2167 100.9304 0001375  94.1530 265.9619 15.08825162 89553,6917.926,95.438,540.742,538.84,0.0
53786.0,STARLINK-4631,PAYLOAD,2024-04-24 02:42:41,15.08844384,0.0001406,53.2176,97.0657,74.0047,286.11,6.709e-05,7.8e-06,0.0,0 STARLINK-4631,1 53786U 22111P   24115.11298103  .00000780  00000-0  67090-4 0  9995,2 53786  53.2176  97.0657 0001406  74.0047 286.1100 15.08844384 89686,6917.867,95.437,540.705,538.759,0.0
